[{"OBJECT_NAME":"SCS-01 J","OBJECT_ID":"2025-100J","EPOCH":"2026-03-09T22:31:25.904064","MEAN_MOTION":15.31338011,"ECCENTRICITY":0.00063909,"INCLINATION":97.3693,"RA_OF_ASC_NODE":145.4824,"ARG_OF_PERICENTER":272.025,"MEAN_ANOMALY":88.026,"EPHEMERIS_TYPE":0,"CLASSIFICATION_TYPE":"U","NORAD_CAT_ID":63990,"ELEMENT_SET_NO":999,"REV_AT_EPOCH":4563,"BSTAR":0.0011832888,"MEAN_MOTION_DOT":0.00035886,"MEAN_MOTION_DDOT":0},{"OBJECT_NAME":"STARLINK-34463","OBJECT_ID":"2025-137E","EPOCH":"2026-03-09T23:20:09.352608","MEAN_MOTION":15.30189777,"ECCENTRICITY":9.945e-5,"INCLINATION":53.158,"RA_OF_ASC_NODE":334.2407,"ARG_OF_PERICENTER":128.873,"MEAN_ANOMALY":231.236,"EPHEMERIS_TYPE":0,"CLASSIFICATION_TYPE":"U","NORAD_CAT_ID":64598,"ELEMENT_SET_NO":999,"REV_AT_EPOCH":4077,"BSTAR":0.00060445475,"MEAN_MOTION_DOT":0.0001758,"MEAN_MOTION_DDOT":0}]
